OBJECT_NAME,OBJECT_ID,EPOCH,MEAN_MOTION,ECCENTRICITY,INCLINATION,RA_OF_ASC_NODE,ARG_OF_PERICENTER,MEAN_ANOMALY,EPHEMERIS_TYPE,CLASSIFICATION_TYPE,NORAD_CAT_ID,ELEMENT_SET_NO,REV_AT_EPOCH,BSTAR,MEAN_MOTION_DOT,MEAN_MOTION_DDOT
SAUDISAT 2,2004-025F,2026-05-13T23:00:47.523168,14.56662015,.00255836,98.5510,133.0577,44.0775,316.2456,0,U,28371,999,16076,.48486904E-4,.168E-5,0
COSMOS 2407,2004-028A,2026-05-13T23:16:57.696672,13.76331712,.0039032,82.9583,100.1755,350.3188,67.9661,0,U,28380,999,9517,.29785445E-4,.44E-6,0
COSMOS 2414,2005-002A,2026-05-13T08:33:14.563584,13.87922860,.00415354,82.9499,69.9902,69.3466,291.2143,0,U,28521,999,7898,.33645621E-4,.56E-6,0
INMARSAT 4-F1,2005-009A,2026-05-13T13:40:37.740864,1.00271477,.00026906,5.1220,42.6793,10.1497,201.7920,0,U,28628,999,7732,0,.46E-6,0
SJ-7,2005-024A,2026-05-13T22:51:28.081440,15.21000120,.00170097,97.7312,163.1462,146.6471,213.5839,0,U,28737,999,14282,.24291572E-3,.5332E-4,0
CUBESAT XI-V,2005-043F,2026-05-13T09:49:01.644384,14.72536322,.00131215,98.2946,288.3105,319.7744,40.2490,0,U,28895,999,9663,.13288979E-3,.792E-5,0
HINODE (SOLAR-B),2006-041A,2026-05-13T12:08:08.519424,14.68570927,.00184111,98.0564,150.1687,42.1105,318.1511,0,U,29479,999,4978,.82174704E-4,.429E-5,0
SHIJIAN-6 02B (SJ-6 02B),2006-046B,2026-05-13T22:55:34.843296,15.01274919,.00116631,97.7163,163.2263,170.8410,189.3029,0,U,29506,999,6560,.79488089E-4,.962E-5,0
DMSP 5D-3 F17 (USA 191),2006-050A,2026-05-13T22:41:15.877824,14.14986923,.00106785,98.7386,141.2155,147.9304,212.2522,0,U,29522,999,758,.31905678E-4,.19E-6,0
LAPAN-TUBSAT,2007-001A,2026-05-13T23:29:34.552032,14.85914670,.00109207,98.1348,132.4337,301.7739,58.2411,0,U,29709,999,4607,.10889179E-4,.37E-6,0
HAIYANG-1B,2007-010A,2026-05-13T22:53:24.088128,14.31018217,.00124625,98.3485,117.1299,306.5676,53.4360,0,U,31113,999,99573,.33998534E-4,.48E-6,0
COSMO-SKYMED 2,2007-059A,2026-05-13T22:23:49.540992,14.82156601,.00014631,97.8885,318.0284,89.8710,270.2671,0,U,32376,999,99692,.37028321E-4,.243E-5,0
CARTOSAT-2A,2008-021A,2026-05-13T22:52:59.299968,14.79186704,.00107784,97.7664,183.8268,217.2358,142.8107,0,U,32783,999,97374,-.1670996E-5,-.63E-6,0
CUTE-1.7+APD II (CO-65),2008-021C,2026-05-13T21:44:47.776128,15.09111750,.00100655,97.8259,114.6252,137.4666,222.7343,0,U,32785,999,98002,.20590003E-3,.3201E-4,0
SEEDS II (CO-66),2008-021J,2026-05-13T23:28:07.159296,15.31540490,.00049811,97.7520,130.2774,82.4291,277.7515,0,U,32791,999,98205,.40133548E-3,.12151E-3,0
YUBILEINY (RS30),2008-025A,2026-05-13T21:29:12.810624,12.43177337,.00203022,82.5073,16.7714,28.5389,331.6798,0,U,32953,999,81543,-.95871175E-3,-.123E-5,0
FENGYUN 3A,2008-026A,2026-05-13T17:19:16.974336,14.19563564,.00078452,98.6872,75.2030,222.2505,137.8067,0,U,32958,999,93051,.34585651E-4,.3E-6,0
HUANJING 1A (HJ-1A),2008-041A,2026-05-13T23:30:33.024096,14.83906001,.00174252,97.6672,121.1456,249.7972,110.1369,0,U,33320,999,95333,.57027443E-4,.423E-5,0
HUANJING 1B (HJ-1B),2008-041B,2026-05-13T22:24:07.153632,14.83256433,.00349653,97.6513,124.3752,297.3799,62.3859,0,U,33321,999,95333,.89771207E-4,.689E-5,0
SHIJIAN-6 03A (SJ-6 03A),2008-053A,2026-05-13T22:42:52.086816,15.16807549,.00128696,97.8447,166.0823,125.8116,234.4314,0,U,33408,999,95777,.13040149E-3,.2494E-4,0
SHIJIAN-6 03B (SJ-6 03B),2008-053B,2026-05-13T23:24:22.656672,15.04209434,.00202233,97.8608,153.3009,151.1573,209.0775,0,U,33409,999,95760,.35547193E-4,.431E-5,0
