SAUDISAT 2              
1 28371U 04025F   26133.95888337  .00000168  00000+0  48487-4 0  9997
2 28371  98.5510 133.0577 0025583  44.0775 316.2456 14.56662015160760
COSMOS 2407             
1 28380U 04028A   26133.97011223  .00000044  00000+0  29785-4 0  9997
2 28380  82.9583 100.1755 0039032 350.3188  67.9661 13.76331712 95173
COSMOS 2414             
1 28521U 05002A   26133.35641856  .00000056  00000+0  33646-4 0  9994
2 28521  82.9499  69.9902 0041535  69.3466 291.2143 13.87922860 78988
INMARSAT 4-F1           
1 28628U 05009A   26133.56988126  .00000046  00000+0  00000+0 0  9998
2 28628   5.1220  42.6793 0002690  10.1497 201.7920  1.00271477 77327
SJ-7                    
1 28737U 05024A   26133.95240835  .00005332  00000+0  24292-3 0  9993
2 28737  97.7312 163.1462 0017009 146.6471 213.5839 15.21000120142827
CUBESAT XI-V            
1 28895U 05043F   26133.40904681  .00000792  00000+0  13289-3 0  9994
2 28895  98.2946 288.3105 0013121 319.7744  40.2490 14.72536322 96630
HINODE (SOLAR-B)        
1 29479U 06041A   26133.50565416  .00000429  00000+0  82175-4 0  9990
2 29479  98.0564 150.1687 0018411  42.1105 318.1511 14.68570927 49788
SHIJIAN-6 02B (SJ-6 02B)
1 29506U 06046B   26133.95526439  .00000962  00000+0  79488-4 0  9992
2 29506  97.7163 163.2263 0011663 170.8410 189.3029 15.01274919 65606
DMSP 5D-3 F17 (USA 191) 
1 29522U 06050A   26133.94532266  .00000019  00000+0  31906-4 0  9995
2 29522  98.7386 141.2155 0010678 147.9304 212.2522 14.14986923  7585
LAPAN-TUBSAT            
1 29709U 07001A   26133.97887213  .00000037  00000+0  10889-4 0  9994
2 29709  98.1348 132.4337 0010920 301.7739  58.2411 14.85914670 46070
HAIYANG-1B              
1 31113U 07010A   26133.95375102  .00000048  00000+0  33999-4 0  9992
2 31113  98.3485 117.1299 0012462 306.5676  53.4360 14.31018217995738
COSMO-SKYMED 2          
1 32376U 07059A   26133.93321228  .00000243  00000+0  37028-4 0  9999
2 32376  97.8885 318.0284 0001463  89.8710 270.2671 14.82156601996925
CARTOSAT-2A             
1 32783U 08021A   26133.95346412 -.00000063  00000+0 -16710-5 0  9993
2 32783  97.7664 183.8268 0010778 217.2358 142.8107 14.79186704973741
CUTE-1.7+APD II (CO-65) 
1 32785U 08021C   26133.90610852  .00003201  00000+0  20590-3 0  9996
2 32785  97.8259 114.6252 0010065 137.4666 222.7343 15.09111750980025
SEEDS II (CO-66)        
1 32791U 08021J   26133.97786064  .00012151  00000+0  40134-3 0  9999
2 32791  97.7520 130.2774 0004981  82.4291 277.7515 15.31540490982056
YUBILEINY (RS30)        
1 32953U 08025A   26133.89528716 -.00000123  00000+0 -95871-3 0  9998
2 32953  82.5073  16.7714 0020302  28.5389 331.6798 12.43177337815433
FENGYUN 3A              
1 32958U 08026A   26133.72172424  .00000030  00000+0  34586-4 0  9999
2 32958  98.6872  75.2030 0007845 222.2505 137.8067 14.19563564930512
HUANJING 1A (HJ-1A)     
1 33320U 08041A   26133.97954889  .00000423  00000+0  57027-4 0  9991
2 33320  97.6672 121.1456 0017425 249.7972 110.1369 14.83906001953335
HUANJING 1B (HJ-1B)     
1 33321U 08041B   26133.93341613  .00000689  00000+0  89771-4 0  9998
2 33321  97.6513 124.3752 0034965 297.3799  62.3859 14.83256433953337
SHIJIAN-6 03A (SJ-6 03A)
1 33408U 08053A   26133.94643619  .00002494  00000+0  13040-3 0  9990
2 33408  97.8447 166.0823 0012869 125.8116 234.4314 15.16807549957777
SHIJIAN-6 03B (SJ-6 03B)
1 33409U 08053B   26133.97526223  .00000431  00000+0  35547-4 0  9991
2 33409  97.8608 153.3009 0020223 151.1573 209.0775 15.04209434957601
